ONEWEB-0395             
1 50475U 21132G   26198.91463222 -.00000262  00000+0 -77391-3 0  9996
2 50475  87.8886  14.9476 0001986  84.6155 275.5199 13.11419400219747
ONEWEB-0396             
1 50476U 21132H   26198.89723088 -.00000024  00000+0 -92400-4 0  9998
2 50476  87.9199 329.3491 0001728  97.3271 262.8058 13.18686662225686
ONEWEB-0397             
1 50477U 21132J   26198.91240097  .00000088  00000+0  19147-3 0  9990
2 50477  87.9202 329.3458 0001651 101.5135 258.6183 13.18686928225662
ONEWEB-0398             
1 50478U 21132K   26198.88243064  .00000036  00000+0  66681-4 0  9993
2 50478  87.8892  14.9469 0002162  89.3464 270.7912 13.11414602219638
ONEWEB-0399             
1 50479U 21132L   26198.86887533  .00000499  00000+0  13719-2 0  9992
2 50479  87.8894  14.9609 0001497  78.5640 281.5656 13.11415975219621
ONEWEB-0400             
1 50480U 21132M   26198.81460510  .00000054  00000+0  10411-3 0  9995
2 50480  87.9201 329.3554 0002051  96.3030 263.8336 13.18684672225642
ONEWEB-0401             
1 50481U 21132N   26198.86013722  .00000011  00000+0 -55498-5 0  9990
2 50481  87.9202 329.3439 0001802 105.4043 254.7288 13.18686289225657
ONEWEB-0402             
1 50482U 21132P   26198.89890512 -.00000030  00000+0 -10852-3 0  9999
2 50482  87.9201 329.3247 0001640 113.6905 246.4400 13.18687546225686
ONEWEB-0403             
1 50483U 21132Q   26198.84833350  .00000044  00000+0  79149-4 0  9990
2 50483  87.9200 329.3593 0001829  93.8922 266.2419 13.18686747225634
ONEWEB-0404             
1 50484U 21132R   26198.92651209  .00000207  00000+0  54784-3 0  9999
2 50484  87.8890  14.9463 0001777  81.1763 278.9566 13.11418345219723
ONEWEB-0405             
1 50485U 21132S   26198.86182242  .00000031  00000+0  46658-4 0  9996
2 50485  87.9202 329.3420 0002360  95.7311 264.4090 13.18684617226035
ONEWEB-0406             
1 50486U 21132T   26198.92926209  .00000023  00000+0  25227-4 0  9993
2 50486  87.9196 329.3432 0001683  82.2218 277.9105 13.18687041225674
ONEWEB-0407             
1 50487U 21132U   26198.84663085 -.00000217  00000+0 -58197-3 0  9993
2 50487  87.9201 329.3529 0002016 104.5382 255.5974 13.18685735225607
ONEWEB-0409             
1 50488U 21132V   26198.92481900  .00000112  00000+0  28080-3 0  9997
2 50488  87.8893  14.9360 0001885  82.3329 277.8013 13.11418629219615
ONEWEB-0412             
1 50489U 21132W   26198.91071665  .00000015  00000+0  43317-5 0  9994
2 50489  87.9199 329.3477 0001704 107.7046 252.4272 13.18686525225708
ONEWEB-0413             
1 50490U 21132X   26198.91577008 -.00000070  00000+0 -21099-3 0  9992
2 50490  87.9191 329.3429 0001877 108.8532 251.2803 13.18687580225644
ONEWEB-0414             
1 50491U 21132Y   26198.90059797 -.00000036  00000+0 -12521-3 0  9994
2 50491  87.9200 329.3311 0001720 101.0411 259.0915 13.18686985225675
ONEWEB-0417             
1 50492U 21132Z   26198.90902543 -.00000019  00000+0 -81878-4 0  9994
2 50492  87.9193 329.3463 0001855  92.9478 267.1866 13.18687215225655
ONEWEB-0418             
1 50493U 21132AA  26198.91900831  .00000017  00000+0  11209-4 0  9991
2 50493  87.9197 329.3457 0001851  90.9024 269.2320 13.18686108225719
ONEWEB-0419             
1 50494U 21132AB  26198.86219818  .00000054  00000+0  10512-3 0  9990
2 50494  87.9199 329.3580 0002089  92.5662 267.5709 13.18665554225623
ONEWEB-0420             
1 50495U 21132AC  26198.90227637 -.00000072  00000+0 -21495-3 0  9998
2 50495  87.9193 329.3498 0002043 103.7795 256.3564 13.18684413225628
ONEWEB-0421             
1 50496U 21132AD  26198.89555312 -.00000034  00000+0 -11982-3 0  9999
2 50496  87.9194 329.3495 0001584 105.7831 254.3476 13.18686246225669
ONEWEB-0424             
1 50497U 21132AE  26198.85676280  .00000054  00000+0  10545-3 0  9998
2 50497  87.9197 329.3575 0002182  92.9563 267.1819 13.18686697225681
ONEWEB-0426             
1 50498U 21132AF  26198.89133107  .00000016  00000+0  85674-5 0  9994
2 50498  87.9202 329.3408 0001311  86.1526 273.9757 13.18686120225633
ONEWEB-0427             
1 50499U 21132AG  26198.93095435  .00000027  00000+0  36928-4 0  9990
2 50499  87.9201 329.3225 0001806  92.0080 268.1259 13.18686978225667
ONEWEB-0429             
1 50500U 21132AH  26198.91744993  .00000048  00000+0  89930-4 0  9995
2 50500  87.9194 329.3472 0001956 102.1893 257.9458 13.18687777225638
ONEWEB-0430             
1 50501U 21132AJ  26198.90564277 -.00000024  00000+0 -92578-4 0  9998
2 50501  87.9192 329.3481 0002124 104.2442 255.8926 13.18688677225679
ONEWEB-0432             
1 50502U 21132AK  26198.88866569  .00000049  00000+0  91022-4 0  9993
2 50502  87.9199 329.3383 0002343  96.9617 263.1782 13.18686401225622
ONEWEB-0440             
1 50503U 21132AL  26198.92588632  .00000028  00000+0  37691-4 0  9990
2 50503  87.9201 329.3425 0001752 107.7396 252.3928 13.18687406225620
ONEWEB-0450             
1 50504U 21132AM  26198.91928347  .00000026  00000+0  34405-4 0  9999
2 50504  87.9191 329.3459 0002042 102.9904 257.1456 13.18687070225650
