OBJECT_NAME,OBJECT_ID,EPOCH,MEAN_MOTION,ECCENTRICITY,INCLINATION,RA_OF_ASC_NODE,ARG_OF_PERICENTER,MEAN_ANOMALY,EPHEMERIS_TYPE,CLASSIFICATION_TYPE,NORAD_CAT_ID,ELEMENT_SET_NO,REV_AT_EPOCH,BSTAR,MEAN_MOTION_DOT,MEAN_MOTION_DDOT
ONEWEB-0395,2021-132G,2026-07-17T21:57:04.223808,13.11419400,.00019861,87.8886,14.9476,84.6155,275.5199,0,U,50475,999,21974,-.77390636E-3,-.262E-5,0
ONEWEB-0396,2021-132H,2026-07-17T21:32:00.748032,13.18686662,.0001728,87.9199,329.3491,97.3271,262.8058,0,U,50476,999,22568,-.92399727E-4,-.24E-6,0
ONEWEB-0397,2021-132J,2026-07-17T21:53:51.443808,13.18686928,.00016517,87.9202,329.3458,101.5135,258.6183,0,U,50477,999,22566,.19146656E-3,.88E-6,0
ONEWEB-0398,2021-132K,2026-07-17T21:10:42.007296,13.11414602,.0002162,87.8892,14.9469,89.3464,270.7912,0,U,50478,999,21963,.66681026E-4,.36E-6,0
ONEWEB-0399,2021-132L,2026-07-17T20:51:10.828512,13.11415975,.00014971,87.8894,14.9609,78.5640,281.5656,0,U,50479,999,21962,.13718793E-2,.499E-5,0
ONEWEB-0400,2021-132M,2026-07-17T19:33:01.880640,13.18684672,.00020512,87.9201,329.3554,96.3030,263.8336,0,U,50480,999,22564,.10411483E-3,.54E-6,0
ONEWEB-0401,2021-132N,2026-07-17T20:38:35.855808,13.18686289,.00018025,87.9202,329.3439,105.4043,254.7288,0,U,50481,999,22565,-.554984E-5,.11E-6,0
ONEWEB-0402,2021-132P,2026-07-17T21:34:25.402368,13.18687546,.000164,87.9201,329.3247,113.6905,246.4400,0,U,50482,999,22568,-.10852284E-3,-.3E-6,0
ONEWEB-0403,2021-132Q,2026-07-17T20:21:36.014400,13.18686747,.00018293,87.9200,329.3593,93.8922,266.2419,0,U,50483,999,22563,.79148809E-4,.44E-6,0
ONEWEB-0404,2021-132R,2026-07-17T22:14:10.644576,13.11418345,.00017777,87.8890,14.9463,81.1763,278.9566,0,U,50484,999,21972,.54783661E-3,.207E-5,0
ONEWEB-0405,2021-132S,2026-07-17T20:41:01.457088,13.18684617,.00023608,87.9202,329.3420,95.7311,264.4090,0,U,50485,999,22603,.46658381E-4,.31E-6,0
ONEWEB-0406,2021-132T,2026-07-17T22:18:08.244576,13.18687041,.00016833,87.9196,329.3432,82.2218,277.9105,0,U,50486,999,22567,.25227149E-4,.23E-6,0
ONEWEB-0407,2021-132U,2026-07-17T20:19:08.905440,13.18685735,.00020164,87.9201,329.3529,104.5382,255.5974,0,U,50487,999,22560,-.58197041E-3,-.217E-5,0
ONEWEB-0409,2021-132V,2026-07-17T22:11:44.361600,13.11418629,.00018852,87.8893,14.9360,82.3329,277.8013,0,U,50488,999,21961,.28079568E-3,.112E-5,0
ONEWEB-0412,2021-132W,2026-07-17T21:51:25.918560,13.18686525,.00017046,87.9199,329.3477,107.7046,252.4272,0,U,50489,999,22570,.4331723E-5,.15E-6,0
ONEWEB-0413,2021-132X,2026-07-17T21:58:42.534912,13.18687580,.00018776,87.9191,329.3429,108.8532,251.2803,0,U,50490,999,22564,-.21099005E-3,-.7E-6,0
ONEWEB-0414,2021-132Y,2026-07-17T21:36:51.664608,13.18686985,.00017208,87.9200,329.3311,101.0411,259.0915,0,U,50491,999,22567,-.12520962E-3,-.36E-6,0
ONEWEB-0417,2021-132Z,2026-07-17T21:48:59.797152,13.18687215,.0001855,87.9193,329.3463,92.9478,267.1866,0,U,50492,999,22565,-.81878002E-4,-.19E-6,0
ONEWEB-0418,2021-132AA,2026-07-17T22:03:22.317984,13.18686108,.00018513,87.9197,329.3457,90.9024,269.2320,0,U,50493,999,22571,.11208926E-4,.17E-6,0
ONEWEB-0419,2021-132AB,2026-07-17T20:41:33.922752,13.18665554,.00020896,87.9199,329.3580,92.5662,267.5709,0,U,50494,999,22562,.10511779E-3,.54E-6,0
ONEWEB-0420,2021-132AC,2026-07-17T21:39:16.678368,13.18684413,.00020434,87.9193,329.3498,103.7795,256.3564,0,U,50495,999,22562,-.21494587E-3,-.72E-6,0
ONEWEB-0421,2021-132AD,2026-07-17T21:29:35.789568,13.18686246,.00015843,87.9194,329.3495,105.7831,254.3476,0,U,50496,999,22566,-.11982434E-3,-.34E-6,0
ONEWEB-0424,2021-132AE,2026-07-17T20:33:44.305920,13.18686697,.00021821,87.9197,329.3575,92.9563,267.1819,0,U,50497,999,22568,.10545371E-3,.54E-6,0
ONEWEB-0426,2021-132AF,2026-07-17T21:23:31.004448,13.18686120,.00013119,87.9202,329.3408,86.1526,273.9757,0,U,50498,999,22563,.85674E-5,.16E-6,0
ONEWEB-0427,2021-132AG,2026-07-17T22:20:34.455840,13.18686978,.00018065,87.9201,329.3225,92.0080,268.1259,0,U,50499,999,22566,.3692835E-4,.27E-6,0
ONEWEB-0429,2021-132AH,2026-07-17T22:01:07.673952,13.18687777,.00019563,87.9194,329.3472,102.1893,257.9458,0,U,50500,999,22563,.89930267E-4,.48E-6,0
ONEWEB-0430,2021-132AJ,2026-07-17T21:44:07.535328,13.18688677,.00021247,87.9192,329.3481,104.2442,255.8926,0,U,50501,999,22567,-.92578404E-4,-.24E-6,0
ONEWEB-0432,2021-132AK,2026-07-17T21:19:40.715616,13.18686401,.00023436,87.9199,329.3383,96.9617,263.1782,0,U,50502,999,22562,.91022004E-4,.49E-6,0
ONEWEB-0440,2021-132AL,2026-07-17T22:13:16.578048,13.18687406,.00017524,87.9201,329.3425,107.7396,252.3928,0,U,50503,999,22562,.37690815E-4,.28E-6,0
ONEWEB-0450,2021-132AM,2026-07-17T22:03:46.091808,13.18687070,.00020426,87.9191,329.3459,102.9904,257.1456,0,U,50504,999,22565,.34404889E-4,.26E-6,0
